start=new Date('2022-01-23T00:00:00.000Z').valueOf();
sats=[{"MEAN_MOTION":"15.06395567","COUNTRY_CODE":"US","MEAN_MOTION_DOT":"-0.00000301","RA_OF_ASC_NODE":"177.4552","OBJECT_ID":"2021-018AG","APOAPSIS":"548.889","CLASSIFICATION_TYPE":"U","CENTER_NAME":"EARTH","REV_AT_EPOCH":"4942","OBJECT_NAME":"STARLINK-2400","PERIOD":"95.592","FILE":"3280062","ELEMENT_SET_NO":"999","SITE":"AFETR","EPHEMERIS_TYPE":"0","ECCENTRICITY":"0.00023990","RCS_SIZE":"LARGE","TLE_LINE2":"2 47817  53.0558 177.4552 0002399  84.2022 275.9240 15.06395567 49422","REF_FRAME":"TEME","NORAD_CAT_ID":"47817","OBJECT_TYPE":"PAYLOAD","MEAN_ANOMALY":"275.9240","INCLINATION":"53.0558","EPOCH":"2022-01-22T13:00:58.725504","LAUNCH_DATE":"2021-03-11","DECAY_DATE":null,"MEAN_MOTION_DDOT":"0.0000000000000","BSTAR":"-0.00000130630000","TLE_LINE1":"1 47817U 21018AG  22022.54234636 -.00000301  00000-0 -13063-5 0  9994","MEAN_ELEMENT_THEORY":"SGP4","PERIAPSIS":"545.566","SEMIMAJOR_AXIS":"6925.362","ARG_OF_PERICENTER":"84.2022","TIME_SYSTEM":"UTC","GP_ID":"194395453"},{"EPHEMERIS_TYPE":"0","ELEMENT_SET_NO":"999","SITE":"AFETR","FILE":"3280062","PERIOD":"95.593","OBJECT_NAME":"STARLINK-2475","REV_AT_EPOCH":"4525","CENTER_NAME":"EARTH","OBJECT_ID":"2021-027AT","APOAPSIS":"548.045","CLASSIFICATION_TYPE":"U","RA_OF_ASC_NODE":"97.5935","MEAN_MOTION_DOT":"-0.00000692","MEAN_MOTION":"15.06393801","COUNTRY_CODE":"US","GP_ID":"194395489","TIME_SYSTEM":"UTC","SEMIMAJOR_AXIS":"6925.368","ARG_OF_PERICENTER":"81.4445","PERIAPSIS":"546.420","MEAN_ELEMENT_THEORY":"SGP4","TLE_LINE1":"1 48133U 21027AT  22022.51654921 -.00000692  00000-0 -27554-4 0  9998","MEAN_MOTION_DDOT":"0.0000000000000","DECAY_DATE":null,"BSTAR":"-0.00002755400000","LAUNCH_DATE":"2021-04-07","MEAN_ANOMALY":"278.6677","OBJECT_TYPE":"PAYLOAD","INCLINATION":"53.0570","EPOCH":"2022-01-22T12:23:49.851744","TLE_LINE2":"2 48133  53.0570  97.5935 0001173  81.4445 278.6677 15.06393801 45252","NORAD_CAT_ID":"48133","REF_FRAME":"TEME","RCS_SIZE":"LARGE","ECCENTRICITY":"0.00011730"},{"ECCENTRICITY":"0.00016690","NORAD_CAT_ID":"48291","REF_FRAME":"TEME","TLE_LINE2":"2 48291  53.0559   7.9638 0001669  59.9274 300.1880 15.06400017 41137","RCS_SIZE":"LARGE","LAUNCH_DATE":"2021-04-29","INCLINATION":"53.0559","EPOCH":"2022-01-22T10:23:04.302816","OBJECT_TYPE":"PAYLOAD","MEAN_ANOMALY":"300.1880","TLE_LINE1":"1 48291U 21036R   22022.43268869  .00000896  00000-0  79036-4 0  9992","BSTAR":"0.00007903600000","MEAN_MOTION_DDOT":"0.0000000000000","DECAY_DATE":null,"MEAN_ELEMENT_THEORY":"SGP4","PERIAPSIS":"546.058","ARG_OF_PERICENTER":"59.9274","SEMIMAJOR_AXIS":"6925.349","GP_ID":"194395758","TIME_SYSTEM":"UTC","COUNTRY_CODE":"US","MEAN_MOTION":"15.06400017","RA_OF_ASC_NODE":"7.9638","MEAN_MOTION_DOT":"0.00000896","CENTER_NAME":"EARTH","CLASSIFICATION_TYPE":"U","APOAPSIS":"548.369","OBJECT_ID":"2021-036R","REV_AT_EPOCH":"4113","OBJECT_NAME":"STARLINK-2555","PERIOD":"95.592","SITE":"AFETR","ELEMENT_SET_NO":"999","FILE":"3280062","EPHEMERIS_TYPE":"0"},{"TLE_LINE1":"1 48328U 21036BE  22022.48612885 -.00000777  00000-0 -33287-4 0  9997","DECAY_DATE":null,"MEAN_MOTION_DDOT":"0.0000000000000","BSTAR":"-0.00003328700000","PERIAPSIS":"546.191","MEAN_ELEMENT_THEORY":"SGP4","SEMIMAJOR_AXIS":"6925.327","ARG_OF_PERICENTER":"71.4987","GP_ID":"194400317","TIME_SYSTEM":"UTC","ECCENTRICITY":"0.00014460","TLE_LINE2":"2 48328  53.0562  27.7096 0001446  71.4987 288.6159 15.06406895 41457","REF_FRAME":"TEME","NORAD_CAT_ID":"48328","RCS_SIZE":"LARGE","LAUNCH_DATE":"2021-04-29","MEAN_ANOMALY":"288.6159","OBJECT_TYPE":"PAYLOAD","EPOCH":"2022-01-22T11:40:01.532640","INCLINATION":"53.0562","OBJECT_NAME":"STARLINK-2504","PERIOD":"95.592","ELEMENT_SET_NO":"999","SITE":"AFETR","FILE":"3280174","EPHEMERIS_TYPE":"0","MEAN_MOTION":"15.06406895","COUNTRY_CODE":"US","RA_OF_ASC_NODE":"27.7096","MEAN_MOTION_DOT":"-0.00000777","CENTER_NAME":"EARTH","APOAPSIS":"548.194","OBJECT_ID":"2021-036BE","CLASSIFICATION_TYPE":"U","REV_AT_EPOCH":"4145"},{"APOAPSIS":"548.242","OBJECT_ID":"2021-036BF","CLASSIFICATION_TYPE":"U","CENTER_NAME":"EARTH","REV_AT_EPOCH":"4145","MEAN_MOTION":"15.06397920","COUNTRY_CODE":"US","MEAN_MOTION_DOT":"-0.00000778","RA_OF_ASC_NODE":"27.7354","FILE":"3280174","ELEMENT_SET_NO":"999","SITE":"AFETR","EPHEMERIS_TYPE":"0","OBJECT_NAME":"STARLINK-2510","PERIOD":"95.592","RCS_SIZE":"LARGE","TLE_LINE2":"2 48329  53.0565  27.7354 0001476  59.0668 301.0466 15.06397920 41458","REF_FRAME":"TEME","NORAD_CAT_ID":"48329","MEAN_ANOMALY":"301.0466","OBJECT_TYPE":"PAYLOAD","EPOCH":"2022-01-22T11:34:43.654944","INCLINATION":"53.0565","LAUNCH_DATE":"2021-04-29","ECCENTRICITY":"0.00014760","SEMIMAJOR_AXIS":"6925.355","ARG_OF_PERICENTER":"59.0668","TIME_SYSTEM":"UTC","GP_ID":"194400331","DECAY_DATE":null,"MEAN_MOTION_DDOT":"0.0000000000000","BSTAR":"-0.00003332700000","TLE_LINE1":"1 48329U 21036BF  22022.48244971 -.00000778  00000-0 -33327-4 0  9991","PERIAPSIS":"546.198","MEAN_ELEMENT_THEORY":"SGP4"},{"OBJECT_NAME":"STARLINK-2470","PERIOD":"95.592","SITE":"AFETR","ELEMENT_SET_NO":"999","FILE":"3280062","EPHEMERIS_TYPE":"0","COUNTRY_CODE":"US","MEAN_MOTION":"15.06407125","RA_OF_ASC_NODE":"28.7122","MEAN_MOTION_DOT":"0.00001187","CENTER_NAME":"EARTH","CLASSIFICATION_TYPE":"U","APOAPSIS":"548.285","OBJECT_ID":"2021-036BL","REV_AT_EPOCH":"4083","TLE_LINE1":"1 48334U 21036BL  22022.26497189  .00001187  00000-0  98576-4 0  9994","BSTAR":"0.00009857600000","MEAN_MOTION_DDOT":"0.0000000000000","DECAY_DATE":null,"MEAN_ELEMENT_THEORY":"SGP4","PERIAPSIS":"546.098","ARG_OF_PERICENTER":"66.5288","SEMIMAJOR_AXIS":"6925.327","GP_ID":"194395012","TIME_SYSTEM":"UTC","ECCENTRICITY":"0.00015790","REF_FRAME":"TEME","NORAD_CAT_ID":"48334","TLE_LINE2":"2 48334  53.0541  28.7122 0001579  66.5288 293.5867 15.06407125 40837","RCS_SIZE":"LARGE","LAUNCH_DATE":"2021-04-29","INCLINATION":"53.0541","EPOCH":"2022-01-22T06:21:33.571296","OBJECT_TYPE":"PAYLOAD","MEAN_ANOMALY":"293.5867"},{"BSTAR":"0.00003056300000","MEAN_MOTION_DDOT":"0.0000000000000","DECAY_DATE":null,"TLE_LINE1":"1 48354U 21038B   22022.46218206  .00000174  00000-0  30563-4 0  9998","MEAN_ELEMENT_THEORY":"SGP4","PERIAPSIS":"545.939","ARG_OF_PERICENTER":"62.5984","SEMIMAJOR_AXIS":"6925.355","TIME_SYSTEM":"UTC","GP_ID":"194395014","ECCENTRICITY":"0.00018500","RCS_SIZE":"LARGE","NORAD_CAT_ID":"48354","REF_FRAME":"TEME","TLE_LINE2":"2 48354  53.0551 287.8275 0001850  62.5984 297.5193 15.06397982 39853","EPOCH":"2022-01-22T11:05:32.529984","INCLINATION":"53.0551","OBJECT_TYPE":"PAYLOAD","MEAN_ANOMALY":"297.5193","LAUNCH_DATE":"2021-05-04","OBJECT_NAME":"STARLINK-2674","PERIOD":"95.592","FILE":"3280062","SITE":"AFETR","ELEMENT_SET_NO":"999","EPHEMERIS_TYPE":"0","COUNTRY_CODE":"US","MEAN_MOTION":"15.06397982","MEAN_MOTION_DOT":"0.00000174","RA_OF_ASC_NODE":"287.8275","CLASSIFICATION_TYPE":"U","OBJECT_ID":"2021-038B","APOAPSIS":"548.501","CENTER_NAME":"EARTH","REV_AT_EPOCH":"3985"},{"ECCENTRICITY":"0.00012590","RCS_SIZE":"LARGE","REF_FRAME":"TEME","NORAD_CAT_ID":"48442","TLE_LINE2":"2 48442  53.0542 107.4738 0001259  81.8170 278.2962 15.06393833 39464","EPOCH":"2022-01-22T12:54:19.495296","INCLINATION":"53.0542","OBJECT_TYPE":"PAYLOAD","MEAN_ANOMALY":"278.2962","LAUNCH_DATE":"2021-05-09","BSTAR":"-0.00003648000000","MEAN_MOTION_DDOT":"0.0000000000000","DECAY_DATE":null,"TLE_LINE1":"1 48442U 21040Q   22022.53772564 -.00000825  00000-0 -36480-4 0  9998","PERIAPSIS":"546.361","MEAN_ELEMENT_THEORY":"SGP4","ARG_OF_PERICENTER":"81.8170","SEMIMAJOR_AXIS":"6925.367","TIME_SYSTEM":"UTC","GP_ID":"194395525","COUNTRY_CODE":"US","MEAN_MOTION":"15.06393833","MEAN_MOTION_DOT":"-0.00000825","RA_OF_ASC_NODE":"107.4738","CLASSIFICATION_TYPE":"U","APOAPSIS":"548.104","OBJECT_ID":"2021-040Q","CENTER_NAME":"EARTH","REV_AT_EPOCH":"3946","OBJECT_NAME":"STARLINK-2644","PERIOD":"95.593","FILE":"3280062","SITE":"AFETR","ELEMENT_SET_NO":"999","EPHEMERIS_TYPE":"0"},{"TLE_LINE2":"2 48450  53.0558 107.5953 0001396  73.1338 286.9804 15.06400736 39464","NORAD_CAT_ID":"48450","REF_FRAME":"TEME","RCS_SIZE":"LARGE","LAUNCH_DATE":"2021-05-09","OBJECT_TYPE":"PAYLOAD","MEAN_ANOMALY":"286.9804","EPOCH":"2022-01-22T12:17:10.655232","INCLINATION":"53.0558","ECCENTRICITY":"0.00013960","SEMIMAJOR_AXIS":"6925.346","ARG_OF_PERICENTER":"73.1338","GP_ID":"194395526","TIME_SYSTEM":"UTC","TLE_LINE1":"1 48450U 21040Y   22022.51192888  .00000949  00000-0  82561-4 0  9996","MEAN_MOTION_DDOT":"0.0000000000000","DECAY_DATE":null,"BSTAR":"0.00008256100000","MEAN_ELEMENT_THEORY":"SGP4","PERIAPSIS":"546.245","CENTER_NAME":"EARTH","OBJECT_ID":"2021-040Y","APOAPSIS":"548.178","CLASSIFICATION_TYPE":"U","REV_AT_EPOCH":"3946","MEAN_MOTION":"15.06400736","COUNTRY_CODE":"US","RA_OF_ASC_NODE":"107.5953","MEAN_MOTION_DOT":"0.00000949","ELEMENT_SET_NO":"999","SITE":"AFETR","FILE":"3280062","EPHEMERIS_TYPE":"0","OBJECT_NAME":"STARLINK-2660","PERIOD":"95.592"},{"TLE_LINE2":"2 48463  53.0554 117.5716 0001250  77.4053 282.7076 15.06397068 39336","REF_FRAME":"TEME","NORAD_CAT_ID":"48463","RCS_SIZE":"LARGE","LAUNCH_DATE":"2021-05-09","OBJECT_TYPE":"PAYLOAD","MEAN_ANOMALY":"282.7076","EPOCH":"2022-01-22T12:30:25.659648","INCLINATION":"53.0554","ECCENTRICITY":"0.00012500","SEMIMAJOR_AXIS":"6925.358","ARG_OF_PERICENTER":"77.4053","GP_ID":"194395027","TIME_SYSTEM":"UTC","TLE_LINE1":"1 48463U 21040AM  22022.52113032  .00000301  00000-0  39111-4 0  9990","DECAY_DATE":null,"MEAN_MOTION_DDOT":"0.0000000000000","BSTAR":"0.00003911100000","MEAN_ELEMENT_THEORY":"SGP4","PERIAPSIS":"546.357","CENTER_NAME":"EARTH","APOAPSIS":"548.088","OBJECT_ID":"2021-040AM","CLASSIFICATION_TYPE":"U","REV_AT_EPOCH":"3933","MEAN_MOTION":"15.06397068","COUNTRY_CODE":"US","RA_OF_ASC_NODE":"117.5716","MEAN_MOTION_DOT":"0.00000301","ELEMENT_SET_NO":"999","SITE":"AFETR","FILE":"3280062","EPHEMERIS_TYPE":"0","OBJECT_NAME":"STARLINK-2689","PERIOD":"95.592"}];
